[
    {
        "Altitude(m)": 559898.861863412,
        "Argument of Periapsis(deg)": 0.013245982221427002,
        "Eccentricity": 0.0,
        "Inclination(deg)": 53.0,
        "Latitude(deg)": 53.145156847008295,
        "Longitude(deg)": 152.23820688729376,
        "Mean Anomaly(deg)": 89.27408573515518,
        "RAAN(deg)": 164.98028673705602,
        "Satellite Name": "Starlink Shell 1 730",
        "Satellite Number": 730,
        "Semi-Major Axis(m)": 6931778.249405717,
        "Time(s)": 380
    },
    {
        "Altitude(m)": 559900.2532841912,
        "Argument of Periapsis(deg)": 0.013594560700938237,
        "Eccentricity": 0.0,
        "Inclination(deg)": 53.0,
        "Latitude(deg)": 53.15095463681619,
        "Longitude(deg)": 153.23913592052412,
        "Mean Anomaly(deg)": 89.9009169387119,
        "RAAN(deg)": 164.97976796697856,
        "Satellite Name": "Starlink Shell 1 730",
        "Satellite Number": 730,
        "Semi-Major Axis(m)": 6931778.249405717,
        "Time(s)": 390
    },
    {
        "Altitude(m)": 559899.5756754186,
        "Argument of Periapsis(deg)": 0.013943139180449475,
        "Eccentricity": 0.0,
        "Inclination(deg)": 53.0,
        "Latitude(deg)": 53.14763563423456,
        "Longitude(deg)": 154.24012473618342,
        "Mean Anomaly(deg)": 90.52774814226859,
        "RAAN(deg)": 164.97924919690107,
        "Satellite Name": "Starlink Shell 1 730",
        "Satellite Number": 730,
        "Semi-Major Axis(m)": 6931778.249405717,
        "Time(s)": 400
    },
    {
        "Altitude(m)": 559896.8294799463,
        "Argument of Periapsis(deg)": 0.014291717659960712,
        "Eccentricity": 0.0,
        "Inclination(deg)": 53.0,
        "Latitude(deg)": 53.135202325383275,
        "Longitude(deg)": 155.24073268085974,
        "Mean Anomaly(deg)": 91.15457934582533,
        "RAAN(deg)": 164.9787304268236,
        "Satellite Name": "Starlink Shell 1 730",
        "Satellite Number": 730,
        "Semi-Major Axis(m)": 6931778.249405717,
        "Time(s)": 410
    },
    {
        "Altitude(m)": 559892.0163812867,
        "Argument of Periapsis(deg)": 0.014640296139471948,
        "Eccentricity": 0.0,
        "Inclination(deg)": 53.0,
        "Latitude(deg)": 53.113664014014226,
        "Longitude(deg)": 156.2405197449967,
        "Mean Anomaly(deg)": 91.78141054938204,
        "RAAN(deg)": 164.97821165674614,
        "Satellite Name": "Starlink Shell 1 730",
        "Satellite Number": 730,
        "Semi-Major Axis(m)": 6931778.249405717,
        "Time(s)": 420
    },
    {
        "Altitude(m)": 559885.1393027857,
        "Argument of Periapsis(deg)": 0.014988874618983185,
        "Eccentricity": 0.0,
        "Inclination(deg)": 53.0,
        "Latitude(deg)": 53.08303678720247,
        "Longitude(deg)": 157.23904838757744,
        "Mean Anomaly(deg)": 92.40824175293874,
        "RAAN(deg)": 164.97769288666865,
        "Satellite Name": "Starlink Shell 1 730",
        "Satellite Number": 730,
        "Semi-Major Axis(m)": 6931778.249405717,
        "Time(s)": 430
    },
    {
        "Altitude(m)": 559876.2024061917,
        "Argument of Periapsis(deg)": 0.015337453098494424,
        "Eccentricity": 0.0,
        "Inclination(deg)": 53.0,
        "Latitude(deg)": 53.04334345620666,
        "Longitude(deg)": 158.2358853425767,
        "Mean Anomaly(deg)": 93.0350729564955,
        "RAAN(deg)": 164.9771741165912,
        "Satellite Name": "Starlink Shell 1 730",
        "Satellite Number": 730,
        "Semi-Major Axis(m)": 6931778.249405717,
        "Time(s)": 440
    },
    {
        "Altitude(m)": 559865.2110896399,
        "Argument of Periapsis(deg)": 0.01568603157800566,
        "Eccentricity": 0.0,
        "Inclination(deg)": 53.0,
        "Latitude(deg)": 52.99461347300911,
        "Longitude(deg)": 159.23060188482714,
        "Mean Anomaly(deg)": 93.66190416005217,
        "RAAN(deg)": 164.97665534651372,
        "Satellite Name": "Starlink Shell 1 730",
        "Satellite Number": 730,
        "Semi-Major Axis(m)": 6931778.249405717,
        "Time(s)": 450
    },
    {
        "Altitude(m)": 559852.1719850065,
        "Argument of Periapsis(deg)": 0.0160346100575169,
        "Eccentricity": 0.0,
        "Inclination(deg)": 53.0,
        "Latitude(deg)": 52.93688282324463,
        "Longitude(deg)": 160.22277557195454,
        "Mean Anomaly(deg)": 94.28873536360892,
        "RAAN(deg)": 164.97613657643623,
        "Satellite Name": "Starlink Shell 1 730",
        "Satellite Number": 730,
        "Semi-Major Axis(m)": 6931778.249405717,
        "Time(s)": 460
    },
    {
        "Altitude(m)": 559837.0929546753,
        "Argument of Periapsis(deg)": 0.016383188537028134,
        "Eccentricity": 0.0,
        "Inclination(deg)": 53.0,
        "Latitude(deg)": 52.87019389642701,
        "Longitude(deg)": 161.21199194090454,
        "Mean Anomaly(deg)": 94.91556656716558,
        "RAAN(deg)": 164.97561780635877,
        "Satellite Name": "Starlink Shell 1 730",
        "Satellite Number": 730,
        "Semi-Major Axis(m)": 6931778.249405717,
        "Time(s)": 470
    },
    {
        "Altitude(m)": 559819.9830877163,
        "Argument of Periapsis(deg)": 0.01673176701653937,
        "Eccentricity": 0.0,
        "Inclination(deg)": 53.0,
        "Latitude(deg)": 52.79459533456238,
        "Longitude(deg)": 162.19784463819627,
        "Mean Anomaly(deg)": 95.54239777072232,
        "RAAN(deg)": 164.9750990362813,
        "Satellite Name": "Starlink Shell 1 730",
        "Satellite Number": 730,
        "Semi-Major Axis(m)": 6931778.249405717,
        "Time(s)": 480
    },
    {
        "Altitude(m)": 559800.8526954508,
        "Argument of Periapsis(deg)": 0.017080345496050607,
        "Eccentricity": 0.0,
        "Inclination(deg)": 53.0,
        "Latitude(deg)": 52.710141860394934,
        "Longitude(deg)": 163.17993700236138,
        "Mean Anomaly(deg)": 96.16922897427906,
        "RAAN(deg)": 164.97458026620382,
        "Satellite Name": "Starlink Shell 1 730",
        "Satellite Number": 730,
        "Semi-Major Axis(m)": 6931778.249405717,
        "Time(s)": 490
    },
    {
        "Altitude(m)": 559779.7133064007,
        "Argument of Periapsis(deg)": 0.017428923975561842,
        "Eccentricity": 0.0,
        "Inclination(deg)": 53.0,
        "Latitude(deg)": 52.61689408668368,
        "Longitude(deg)": 164.15788357918933,
        "Mean Anomaly(deg)": 96.79606017783573,
        "RAAN(deg)": 164.97406149612635,
        "Satellite Name": "Starlink Shell 1 730",
        "Satellite Number": 730,
        "Semi-Major Axis(m)": 6931778.249405717,
        "Time(s)": 500
    },
    {
        "Altitude(m)": 559756.5776607019,
        "Argument of Periapsis(deg)": 0.01777750245507308,
        "Eccentricity": 0.0,
        "Inclination(deg)": 53.0,
        "Latitude(deg)": 52.514918308033565,
        "Longitude(deg)": 165.1313100512512,
        "Mean Anomaly(deg)": 97.4228913813925,
        "RAAN(deg)": 164.9735427260489,
        "Satellite Name": "Starlink Shell 1 730",
        "Satellite Number": 730,
        "Semi-Major Axis(m)": 6931778.249405717,
        "Time(s)": 510
    },
    {
        "Altitude(m)": 559731.4597038656,
        "Argument of Periapsis(deg)": 0.018126080934584315,
        "Eccentricity": 0.0,
        "Inclination(deg)": 53.0,
        "Latitude(deg)": 52.404286276902006,
        "Longitude(deg)": 166.09985460268973,
        "Mean Anomaly(deg)": 98.04972258494915,
        "RAAN(deg)": 164.9730239559714,
        "Satellite Name": "Starlink Shell 1 730",
        "Satellite Number": 730,
        "Semi-Major Axis(m)": 6931778.249405717,
        "Time(s)": 520
    },
    {
        "Altitude(m)": 559704.374579974,
        "Argument of Periapsis(deg)": 0.018474659414095554,
        "Eccentricity": 0.0,
        "Inclination(deg)": 53.0,
        "Latitude(deg)": 52.2850749655034,
        "Longitude(deg)": 167.06316920247573,
        "Mean Anomaly(deg)": 98.67655378850591,
        "RAAN(deg)": 164.97250518589394,
        "Satellite Name": "Starlink Shell 1 730",
        "Satellite Number": 730,
        "Semi-Major Axis(m)": 6931778.249405717,
        "Time(s)": 530
    },
    {
        "Altitude(m)": 559675.3386242974,
        "Argument of Periapsis(deg)": 0.018823237893606792,
        "Eccentricity": 0.0,
        "Inclination(deg)": 53.0,
        "Latitude(deg)": 52.157366315309815,
        "Longitude(deg)": 168.02091929096613,
        "Mean Anomaly(deg)": 99.30338499206265,
        "RAAN(deg)": 164.97198641581647,
        "Satellite Name": "Starlink Shell 1 730",
        "Satellite Number": 730,
        "Semi-Major Axis(m)": 6931778.249405717,
        "Time(s)": 540
    },
    {
        "Altitude(m)": 559644.3693553207,
        "Argument of Periapsis(deg)": 0.019171816373118027,
        "Eccentricity": 0.0,
        "Inclination(deg)": 53.0,
        "Latitude(deg)": 52.02124697611971,
        "Longitude(deg)": 168.9727848921306,
        "Mean Anomaly(deg)": 99.93021619561934,
        "RAAN(deg)": 164.97146764573898,
        "Satellite Name": "Starlink Shell 1 730",
        "Satellite Number": 730,
        "Semi-Major Axis(m)": 6931778.249405717,
        "Time(s)": 550
    },
    {
        "Altitude(m)": 559611.485466176,
        "Argument of Periapsis(deg)": 0.019520394852629266,
        "Eccentricity": 0.0,
        "Inclination(deg)": 53.0,
        "Latitude(deg)": 51.8768080362999,
        "Longitude(deg)": 169.91846163940755,
        "Mean Anomaly(deg)": 100.55704739917606,
        "RAAN(deg)": 164.97094887566152,
        "Satellite Name": "Starlink Shell 1 730",
        "Satellite Number": 730,
        "Semi-Major Axis(m)": 6931778.249405717,
        "Time(s)": 560
    }
]